STARLINK-35749          
1 66879U 25283B   26068.27334486 -.00017541  00000+0 -58181-3 0  9990
2 66879  53.1626  25.8696 0000795  87.5951 272.5141 15.30182928 15785
STARLINK-35844          
1 66880U 25283C   26068.14799784  .00018153  00000+0  62349-3 0  9993
2 66880  53.1620  26.5109 0001005  78.7465 281.3648 15.30201934 15762
STARLINK-35860          
1 66881U 25283D   26068.20170508  .00031095  00000+0  10574-2 0  9990
2 66881  53.1627  26.1336 0001027 104.7371 255.3743 15.30206831 15777
STARLINK-35912          
1 66882U 25283E   26068.25657913  .00033351  00000+0  11334-2 0  9998
2 66882  53.1609  26.4811 0000782  92.2957 267.8133 15.30191279 15777
STARLINK-35947          
1 66883U 25283F   26068.25447089  .00024580  00000+0  83943-3 0  9990
2 66883  53.1613  26.4648 0001103 113.3046 246.8071 15.30193502 15794
STARLINK-36057          
1 66884U 25283G   26068.24813914  .00033669  00000+0  11442-2 0  9996
2 66884  53.1603  26.4280 0001141  79.9322 280.1808 15.30188592 15772
STARLINK-35954          
1 66885U 25283H   26068.25130263  .00034557  00000+0  11737-2 0  9991
2 66885  53.1612  26.4465 0000647 104.3894 255.7178 15.30194474 15779
STARLINK-35900          
1 66886U 25283J   26068.17543655  .00029525  00000+0  10055-2 0  9997
2 66886  53.1612  26.6843 0001219  73.9111 286.2024 15.30183452 15763
STARLINK-35925          
1 66887U 25283K   26068.30290063  .00015542  00000+0  53593-3 0  9994
2 66887  53.1612  26.0581 0000919  75.3688 284.7414 15.30190280 15783
STARLINK-35919          
1 66888U 25283L   26068.16910495  .00041823  00000+0  14169-2 0  9993
2 66888  53.1608  26.6427 0001246  77.0606 283.0534 15.30185332 15762
STARLINK-35852          
1 66889U 25283M   26068.29656877  .00020086  00000+0  68888-3 0  9995
2 66889  53.1614  26.0141 0001379  72.4217 287.6935 15.30180185 15789
STARLINK-35885          
1 66890U 25283N   26068.16277440  .00031926  00000+0  10858-2 0  9996
2 66890  53.1607  26.6013 0001103  89.2595 270.8532 15.30188363 15768
STARLINK-35855          
1 66891U 25283P   26068.15960220  .00029403  00000+0  10014-2 0  9992
2 66891  53.1612  26.5806 0000779 111.8454 248.2630 15.30184766 15769
STARLINK-35883          
1 66892U 25283Q   26068.28707085  .00041607  00000+0  14095-2 0  9998
2 66892  53.1613  25.9540 0001158  92.5073 267.6060 15.30189960 15788
STARLINK-36033          
1 66893U 25283R   26068.26396658  .00018656  00000+0  64068-3 0  9991
2 66893  53.1627  26.5248 0001106 106.8453 253.2670 15.30186705 15771
STARLINK-35718          
1 66894U 25283S   26068.15011130  .00039207  00000+0  13287-2 0  9990
2 66894  53.1623  26.5203 0001386  41.6262 318.4844 15.30205121 15763
